[{"OBJECT_NAME":"STARLINK-35667","OBJECT_ID":"2025-257W","EPOCH":"2026-03-09T16:52:41.915424","MEAN_MOTION":15.30198713,"ECCENTRICITY":9.768e-5,"INCLINATION":53.1578,"RA_OF_ASC_NODE":217.0941,"ARG_OF_PERICENTER":79.8419,"MEAN_ANOMALY":280.2692,"EPHEMERIS_TYPE":0,"CLASSIFICATION_TYPE":"U","NORAD_CAT_ID":66400,"ELEMENT_SET_NO":999,"REV_AT_EPOCH":1973,"BSTAR":0.0012346287,"MEAN_MOTION_DOT":0.00036385,"MEAN_MOTION_DDOT":0},{"OBJECT_NAME":"TRANSPORTER-1 OBJECT AA","OBJECT_ID":"2021-006AA","EPOCH":"2026-03-09T22:58:14.761920","MEAN_MOTION":15.29982294,"ECCENTRICITY":0.00086604,"INCLINATION":97.2381,"RA_OF_ASC_NODE":112.457,"ARG_OF_PERICENTER":185.709,"MEAN_ANOMALY":174.4054,"EPHEMERIS_TYPE":0,"CLASSIFICATION_TYPE":"U","NORAD_CAT_ID":47437,"ELEMENT_SET_NO":999,"REV_AT_EPOCH":28414,"BSTAR":0.0002197941,"MEAN_MOTION_DOT":6.312e-5,"MEAN_MOTION_DDOT":0}]
